STARLINK-1549
1 26074C 20055AZ  21325.18062201  .00002843  00000-0  19047-3 0  3250
2 26074  53.0538 302.4210 0001591  59.5515  56.8070 15.06394325    10
